{
  "name": "SATGUS",
  "line1": "1 62713U 25009DJ  25310.18876978  .00009684  00000+0  83754-3 0  9996",
  "line2": "2 62713  97.7272  28.7149 0003004 134.0007 226.1463 14.97385096 44147",
  "fetched_at": "2025-11-07T00:19:19.965773+00:00"
}